STARLINK-30494          
1 57970U 23151G   26068.36049035 -.00001272  00000+0 -35691-4 0  9993
2 57970  43.0027 192.4566 0001155 241.5536 118.5200 15.28417441137406
STARLINK-34168          
1 64079U 25107R   26068.42669957  .00039647  00000+0  14423-2 0  9995
2 64079  43.0020 202.7402 0001303 242.1444 117.9276 15.27585044 46084
